{
"type": "FeatureCollection",
"name": "buildings",
"crs": { "type": "name", "properties": { "name": "urn:ogc:def:crs:OGC:1.3:CRS84" } },
"features": [
{ "type": "Feature", "properties": { "osm_id": 197557210, "addr:housenumber": "5", "building": "detached", "addr:housename": null, "addr:city": "Cambridge", "building:levels": "2", "addr:postcode": "CB24 9YZ", "roof:levels": "1", "roof:shape": "gabled", "addr:village": "Histon", "addr:street": "Pease Way" }, "geometry": { "type": "Polygon", "coordinates": [ [ [ 0.0933107, 52.2542715 ], [ 0.0934403, 52.2542395 ], [ 0.0934999, 52.2543301 ], [ 0.0933704, 52.2543621 ], [ 0.0933107, 52.2542715 ] ] ] } },
{ "type": "Feature", "properties": { "osm_id": 197818864, "addr:housenumber": null, "building": "detached", "addr:housename": "Brantwych", "addr:city": "Cambridge", "building:levels": "2", "addr:postcode": "CB24 9HY", "roof:levels": "1", "roof:shape": "gabled", "addr:village": "Histon", "addr:street": "Melvin Way" }, "geometry": { "type": "Polygon", "coordinates": [ [ [ 0.0937409, 52.2543087 ], [ 0.0938456, 52.2542821 ], [ 0.0937824, 52.254189 ], [ 0.0939179, 52.2541545 ], [ 0.0939508, 52.254203 ], [ 0.0939278, 52.2542089 ], [ 0.0939917, 52.2543031 ], [ 0.0937746, 52.2543583 ], [ 0.0937409, 52.2543087 ] ] ] } },
{ "type": "Feature", "properties": { "osm_id": 197818841, "addr:housenumber": null, "building": "detached", "addr:housename": "Pippin House", "addr:city": "Cambridge", "building:levels": "2", "addr:postcode": "CB24 9HY", "roof:levels": "1", "roof:shape": "gabled", "addr:village": "Histon", "addr:street": "Melvin Way" }, "geometry": { "type": "Polygon", "coordinates": [ [ [ 0.0938507, 52.254357 ], [ 0.0940148, 52.254319 ], [ 0.0940519, 52.254379 ], [ 0.0939848, 52.2543945 ], [ 0.0940136, 52.2544412 ], [ 0.0939166, 52.2544636 ], [ 0.0938507, 52.254357 ] ] ] } },
{ "type": "Feature", "properties": { "osm_id": 197818837, "addr:housenumber": "3", "building": "detached", "addr:housename": null, "addr:city": "Cambridge", "building:levels": "2", "addr:postcode": "CB24 9HY", "roof:levels": "1", "roof:shape": "gabled", "addr:village": "Histon", "addr:street": "Melvin Way" }, "geometry": { "type": "Polygon", "coordinates": [ [ [ 0.0941887, 52.254258 ], [ 0.0942664, 52.2542407 ], [ 0.0942409, 52.2541978 ], [ 0.0943272, 52.2541786 ], [ 0.0943679, 52.2542471 ], [ 0.0943214, 52.2542574 ], [ 0.0943521, 52.254309 ], [ 0.0942346, 52.2543352 ], [ 0.0941887, 52.254258 ] ] ] } },
{ "type": "Feature", "properties": { "osm_id": 197557192, "addr:housenumber": "3", "building": "detached", "addr:housename": null, "addr:city": "Cambridge", "building:levels": "2", "addr:postcode": "CB24 9YZ", "roof:levels": "1", "roof:shape": "gabled", "addr:village": "Histon", "addr:street": "Pease Way" }, "geometry": { "type": "Polygon", "coordinates": [ [ [ 0.0932932, 52.2544011 ], [ 0.0934374, 52.2543623 ], [ 0.093514, 52.2544688 ], [ 0.0933698, 52.2545076 ], [ 0.0932932, 52.2544011 ] ] ] } },
{ "type": "Feature", "properties": { "osm_id": 197557186, "addr:housenumber": "1", "building": "detached", "addr:housename": null, "addr:city": "Cambridge", "building:levels": "2", "addr:postcode": "CB24 9YZ", "roof:levels": "1", "roof:shape": "gabled", "addr:village": "Histon", "addr:street": "Pease Way" }, "geometry": { "type": "Polygon", "coordinates": [ [ [ 0.0934208, 52.2545985 ], [ 0.093582, 52.2545568 ], [ 0.09364, 52.2546408 ], [ 0.0935679, 52.2546595 ], [ 0.0935554, 52.2546414 ], [ 0.0934663, 52.2546645 ], [ 0.0934208, 52.2545985 ] ] ] } },
{ "type": "Feature", "properties": { "osm_id": 197818852, "addr:housenumber": null, "building": "detached", "addr:housename": "Bramley House", "addr:city": "Cambridge", "building:levels": "2", "addr:postcode": "CB24 9HY", "roof:levels": "1", "roof:shape": "gabled", "addr:village": "Histon", "addr:street": "Melvin Way" }, "geometry": { "type": "Polygon", "coordinates": [ [ [ 0.0939259, 52.2544706 ], [ 0.0940232, 52.2544487 ], [ 0.0940535, 52.254499 ], [ 0.0941208, 52.2544838 ], [ 0.094155, 52.2545406 ], [ 0.0939903, 52.2545777 ], [ 0.0939259, 52.2544706 ] ] ] } },
{ "type": "Feature", "properties": { "osm_id": 197818877, "addr:housenumber": "81", "building": "detached", "addr:housename": null, "addr:city": "Cambridge", "building:levels": "2", "addr:postcode": "CB24 9JJ", "roof:levels": "1", "roof:shape": "gabled", "addr:village": "Histon", "addr:street": "Park Lane" }, "geometry": { "type": "Polygon", "coordinates": [ [ [ 0.093957, 52.2546077 ], [ 0.0941758, 52.2545566 ], [ 0.0942116, 52.2546139 ], [ 0.0939928, 52.2546651 ], [ 0.093957, 52.2546077 ] ] ] } },
{ "type": "Feature", "properties": { "osm_id": 197818835, "addr:housenumber": "77", "building": "detached", "addr:housename": null, "addr:city": "Cambridge", "building:levels": "2", "addr:postcode": "CB24 9JJ", "roof:levels": "1", "roof:shape": "gabled", "addr:village": "Histon", "addr:street": "Park Lane" }, "geometry": { "type": "Polygon", "coordinates": [ [ [ 0.0943521, 52.2545108 ], [ 0.0944917, 52.2544662 ], [ 0.094549, 52.2545334 ], [ 0.0944094, 52.254578 ], [ 0.0943521, 52.2545108 ] ] ] } },
{ "type": "Feature", "properties": { "osm_id": 197557219, "addr:housenumber": "73", "building": "detached", "addr:housename": null, "addr:city": "Cambridge", "building:levels": "2", "addr:postcode": "CB24 9JJ", "roof:levels": "1", "roof:shape": "gabled", "addr:village": "Histon", "addr:street": "Park Lane" }, "geometry": { "type": "Polygon", "coordinates": [ [ [ 0.0947025, 52.2544145 ], [ 0.0948426, 52.2543698 ], [ 0.0948895, 52.2544248 ], [ 0.0947494, 52.2544696 ], [ 0.0947025, 52.2544145 ] ] ] } }
]
}
